STARLINK-2203
1 17417C 21006E   21326.11440428  .01253077  00000-0  10448-1 0  3267
2 17417  97.4939  26.3232 0001837 209.2100 188.8095 15.68813306    18
